COSMOS 1408 DEB         
1 50032U 82092RU  26190.53161511  .00003177  00000+0  59976-4 0  9999
2 50032  82.5612 204.1093 0015666 167.0878 193.0777 15.47872542258314
COSMOS 1408 DEB         
1 50058U 82092SW  26191.32092978  .00061951  00000+0  26828-3 0  9998
2 50058  82.6057 206.8898 0008046  50.0281 310.1695 15.84619252260997
COSMOS 1408 DEB         
1 50621U 82092ALR 26192.03302891  .00027720  00000+0  21719-3 0  9991
2 50621  82.5631 212.8836 0021517  92.3540 268.0186 15.71083706255360
